[
  {
    "OBJECT_NAME": "METEOSAT-10 (MSG-3)",
    "OBJECT_ID": "2012-035B",
    "EPOCH": "2025-05-24T00:24:49.493664",
    "MEAN_MOTION": 1.00270471,
    "ECCENTRICITY": 5.33e-05,
    "INCLINATION": 3.7517,
    "RA_OF_ASC_NODE": 62.0673,
    "ARG_OF_PERICENTER": 17.5336,
    "MEAN_ANOMALY": 168.5044,
    "EPHEMERIS_TYPE": 0,
    "CLASSIFICATION_TYPE": "U",
    "NORAD_CAT_ID": 38552,
    "ELEMENT_SET_NO": 999,
    "REV_AT_EPOCH": 4695,
    "BSTAR": 0,
    "MEAN_MOTION_DOT": 2e-08,
    "MEAN_MOTION_DDOT": 0
  },
  {
    "OBJECT_NAME": "METOP-B",
    "OBJECT_ID": "2012-049A",
    "EPOCH": "2025-05-24T20:11:39.478560",
    "MEAN_MOTION": 14.21497422,
    "ECCENTRICITY": 0.0001868,
    "INCLINATION": 98.5778,
    "RA_OF_ASC_NODE": 199.5004,
    "ARG_OF_PERICENTER": 77.1802,
    "MEAN_ANOMALY": 282.9584,
    "EPHEMERIS_TYPE": 0,
    "CLASSIFICATION_TYPE": "U",
    "NORAD_CAT_ID": 38771,
    "ELEMENT_SET_NO": 999,
    "REV_AT_EPOCH": 65808,
    "BSTAR": 6.9166e-05,
    "MEAN_MOTION_DOT": 1.09e-06,
    "MEAN_MOTION_DDOT": 0
  },
  {
    "OBJECT_NAME": "INSAT-3D",
    "OBJECT_ID": "2013-038B",
    "EPOCH": "2025-05-24T12:33:10.530720",
    "MEAN_MOTION": 1.0027035,
    "ECCENTRICITY": 6.75e-05,
    "INCLINATION": 0.9209,
    "RA_OF_ASC_NODE": 87.8108,
    "ARG_OF_PERICENTER": 301.2351,
    "MEAN_ANOMALY": 171.2186,
    "EPHEMERIS_TYPE": 0,
    "CLASSIFICATION_TYPE": "U",
    "NORAD_CAT_ID": 39216,
    "ELEMENT_SET_NO": 999,
    "REV_AT_EPOCH": 4318,
    "BSTAR": 0,
    "MEAN_MOTION_DOT": -3.3e-06,
    "MEAN_MOTION_DDOT": 0
  },
  {
    "OBJECT_NAME": "FENGYUN 3C",
    "OBJECT_ID": "2013-052A",
    "EPOCH": "2025-05-24T21:16:26.798592",
    "MEAN_MOTION": 14.1562266,
    "ECCENTRICITY": 0.0015822,
    "INCLINATION": 98.4539,
    "RA_OF_ASC_NODE": 132.6735,
    "ARG_OF_PERICENTER": 63.613,
    "MEAN_ANOMALY": 296.6667,
    "EPHEMERIS_TYPE": 0,
    "CLASSIFICATION_TYPE": "U",
    "NORAD_CAT_ID": 39260,
    "ELEMENT_SET_NO": 999,
    "REV_AT_EPOCH": 60369,
    "BSTAR": 6.702e-05,
    "MEAN_MOTION_DOT": 9e-07,
    "MEAN_MOTION_DDOT": 0
  },
  {
    "OBJECT_NAME": "METEOR-M 2",
    "OBJECT_ID": "2014-037A",
    "EPOCH": "2025-05-24T20:25:43.025088",
    "MEAN_MOTION": 14.21292765,
    "ECCENTRICITY": 0.0007007,
    "INCLINATION": 98.4673,
    "RA_OF_ASC_NODE": 130.4385,
    "ARG_OF_PERICENTER": 85.7429,
    "MEAN_ANOMALY": 274.4549,
    "EPHEMERIS_TYPE": 0,
    "CLASSIFICATION_TYPE": "U",
    "NORAD_CAT_ID": 40069,
    "ELEMENT_SET_NO": 999,
    "REV_AT_EPOCH": 56415,
    "BSTAR": 6.9577e-05,
    "MEAN_MOTION_DOT": 1.1e-06,
    "MEAN_MOTION_DDOT": 0
  },
  {
    "OBJECT_NAME": "HIMAWARI-8",
    "OBJECT_ID": "2014-060A",
    "EPOCH": "2025-05-24T13:09:38.615040",
    "MEAN_MOTION": 1.00269513,
    "ECCENTRICITY": 2.36e-05,
    "INCLINATION": 0.0549,
    "RA_OF_ASC_NODE": 101.3764,
    "ARG_OF_PERICENTER": 323.1195,
    "MEAN_ANOMALY": 155.9771,
    "EPHEMERIS_TYPE": 0,
    "CLASSIFICATION_TYPE": "U",
    "NORAD_CAT_ID": 40267,
    "ELEMENT_SET_NO": 999,
    "REV_AT_EPOCH": 3885,
    "BSTAR": 0,
    "MEAN_MOTION_DOT": -2.67e-06,
    "MEAN_MOTION_DDOT": 0
  },
  {
    "OBJECT_NAME": "FENGYUN 2G",
    "OBJECT_ID": "2014-090A",
    "EPOCH": "2025-05-23T21:27:29.718144",
    "MEAN_MOTION": 1.00265199,
    "ECCENTRICITY": 0.0003203,
    "INCLINATION": 4.6529,
    "RA_OF_ASC_NODE": 77.5443,
    "ARG_OF_PERICENTER": 128.2457,
    "MEAN_ANOMALY": 97.0367,
    "EPHEMERIS_TYPE": 0,
    "CLASSIFICATION_TYPE": "U",
    "NORAD_CAT_ID": 40367,
    "ELEMENT_SET_NO": 999,
    "REV_AT_EPOCH": 3813,
    "BSTAR": 0,
    "MEAN_MOTION_DOT": -2.88e-06,
    "MEAN_MOTION_DDOT": 0
  },
  {
    "OBJECT_NAME": "METEOSAT-11 (MSG-4)",
    "OBJECT_ID": "2015-034A",
    "EPOCH": "2025-05-24T09:42:51.693408",
    "MEAN_MOTION": 1.00273001,
    "ECCENTRICITY": 0.0001218,
    "INCLINATION": 2.2308,
    "RA_OF_ASC_NODE": 72.3397,
    "ARG_OF_PERICENTER": 292.9785,
    "MEAN_ANOMALY": 31.8678,
    "EPHEMERIS_TYPE": 0,
    "CLASSIFICATION_TYPE": "U",
    "NORAD_CAT_ID": 40732,
    "ELEMENT_SET_NO": 999,
    "REV_AT_EPOCH": 331,
    "BSTAR": 0,
    "MEAN_MOTION_DOT": 7.1e-07,
    "MEAN_MOTION_DDOT": 0
  },
  {
    "OBJECT_NAME": "ELEKTRO-L 2",
    "OBJECT_ID": "2015-074A",
    "EPOCH": "2025-05-24T03:33:38.620224",
    "MEAN_MOTION": 1.00270279,
    "ECCENTRICITY": 0.0001465,
    "INCLINATION": 5.712,
    "RA_OF_ASC_NODE": 75.3172,
    "ARG_OF_PERICENTER": 225.9328,
    "MEAN_ANOMALY": 339.6645,
    "EPHEMERIS_TYPE": 0,
    "CLASSIFICATION_TYPE": "U",
    "NORAD_CAT_ID": 41105,
    "ELEMENT_SET_NO": 999,
    "REV_AT_EPOCH": 3461,
    "BSTAR": 0,
    "MEAN_MOTION_DOT": -1.08e-06,
    "MEAN_MOTION_DDOT": 0
  },
  {
    "OBJECT_NAME": "INSAT-3DR",
    "OBJECT_ID": "2016-054A",
    "EPOCH": "2025-05-24T12:45:28.283904",
    "MEAN_MOTION": 1.00270938,
    "ECCENTRICITY": 0.0010426,
    "INCLINATION": 0.1361,
    "RA_OF_ASC_NODE": 91.755,
    "ARG_OF_PERICENTER": 180.7784,
    "MEAN_ANOMALY": 235.2184,
    "EPHEMERIS_TYPE": 0,
    "CLASSIFICATION_TYPE": "U",
    "NORAD_CAT_ID": 41752,
    "ELEMENT_SET_NO": 999,
    "REV_AT_EPOCH": 3192,
    "BSTAR": 0,
    "MEAN_MOTION_DOT": -6.8e-07,
    "MEAN_MOTION_DDOT": 0
  },
  {
    "OBJECT_NAME": "HIMAWARI-9",
    "OBJECT_ID": "2016-064A",
    "EPOCH": "2025-05-24T07:56:12.684768",
    "MEAN_MOTION": 1.00272811,
    "ECCENTRICITY": 0.0001298,
    "INCLINATION": 0.0085,
    "RA_OF_ASC_NODE": 237.6979,
    "ARG_OF_PERICENTER": 234.6628,
    "MEAN_ANOMALY": 29.6366,
    "EPHEMERIS_TYPE": 0,
    "CLASSIFICATION_TYPE": "U",
    "NORAD_CAT_ID": 41836,
    "ELEMENT_SET_NO": 999,
    "REV_AT_EPOCH": 3131,
    "BSTAR": 0,
    "MEAN_MOTION_DOT": -2.65e-06,
    "MEAN_MOTION_DDOT": 0
  },
  {
    "OBJECT_NAME": "GOES 16",
    "OBJECT_ID": "2016-071A",
    "EPOCH": "2025-05-24T11:12:22.489344",
    "MEAN_MOTION": 1.00124482,
    "ECCENTRICITY": 0.0001391,
    "INCLINATION": 0.055,
    "RA_OF_ASC_NODE": 261.6827,
    "ARG_OF_PERICENTER": 225.0902,
    "MEAN_ANOMALY": 185.7586,
    "EPHEMERIS_TYPE": 0,
    "CLASSIFICATION_TYPE": "U",
    "NORAD_CAT_ID": 41866,
    "ELEMENT_SET_NO": 999,
    "REV_AT_EPOCH": 3120,
    "BSTAR": 0,
    "MEAN_MOTION_DOT": -1.03e-06,
    "MEAN_MOTION_DDOT": 0
  },
  {
    "OBJECT_NAME": "FENGYUN 4A",
    "OBJECT_ID": "2016-077A",
    "EPOCH": "2025-05-24T14:24:10.971072",
    "MEAN_MOTION": 1.00267121,
    "ECCENTRICITY": 0.0007378,
    "INCLINATION": 1.3316,
    "RA_OF_ASC_NODE": 84.4518,
    "ARG_OF_PERICENTER": 164.8358,
    "MEAN_ANOMALY": 332.7972,
    "EPHEMERIS_TYPE": 0,
    "CLASSIFICATION_TYPE": "U",
    "NORAD_CAT_ID": 41882,
    "ELEMENT_SET_NO": 999,
    "REV_AT_EPOCH": 3103,
    "BSTAR": 0,
    "MEAN_MOTION_DOT": -3.48e-06,
    "MEAN_MOTION_DDOT": 0
  },
  {
    "OBJECT_NAME": "CYGFM05",
    "OBJECT_ID": "2016-078A",
    "EPOCH": "2025-05-24T13:56:03.617088",
    "MEAN_MOTION": 15.40240584,
    "ECCENTRICITY": 0.0009334,
    "INCLINATION": 34.9612,
    "RA_OF_ASC_NODE": 278.9098,
    "ARG_OF_PERICENTER": 96.1849,
    "MEAN_ANOMALY": 263.9934,
    "EPHEMERIS_TYPE": 0,
    "CLASSIFICATION_TYPE": "U",
    "NORAD_CAT_ID": 41884,
    "ELEMENT_SET_NO": 999,
    "REV_AT_EPOCH": 46851,
    "BSTAR": 0.00025753,
    "MEAN_MOTION_DOT": 0.00010639,
    "MEAN_MOTION_DDOT": 0
  }
]