METEOSAT-10 (MSG-3)     
1 38552U 12035B   25144.01723951  .00000002  00000+0  00000+0 0  9998
2 38552   3.7517  62.0673 0000533  17.5336 168.5044  1.00270471 46952
METOP-B                 
1 38771U 12049A   25144.84142915  .00000109  00000+0  69166-4 0  9993
2 38771  98.5778 199.5004 0001868  77.1802 282.9584 14.21497422658089
INSAT-3D                
1 39216U 13038B   25144.52303855 -.00000330  00000+0  00000+0 0  9998
2 39216   0.9209  87.8108 0000675 301.2351 171.2186  1.00270350 43188
FENGYUN 3C              
1 39260U 13052A   25144.88642128  .00000090  00000+0  67020-4 0  9993
2 39260  98.4539 132.6735 0015822  63.6130 296.6667 14.15622660603693
METEOR-M 2              
1 40069U 14037A   25144.85119242  .00000110  00000+0  69577-4 0  9991
2 40069  98.4673 130.4385 0007007  85.7429 274.4549 14.21292765564156
HIMAWARI-8              
1 40267U 14060A   25144.54836360 -.00000267  00000+0  00000+0 0  9995
2 40267   0.0549 101.3764 0000236 323.1195 155.9771  1.00269513 38852
FENGYUN 2G              
1 40367U 14090A   25143.89409396 -.00000288  00000+0  00000+0 0  9994
2 40367   4.6529  77.5443 0003203 128.2457  97.0367  1.00265199 38135
METEOSAT-11 (MSG-4)     
1 40732U 15034A   25144.40476497  .00000071  00000+0  00000+0 0  9992
2 40732   2.2308  72.3397 0001218 292.9785  31.8678  1.00273001  3312
ELEKTRO-L 2             
1 41105U 15074A   25144.14836366 -.00000108  00000+0  00000+0 0  9999
2 41105   5.7120  75.3172 0001465 225.9328 339.6645  1.00270279 34618
INSAT-3DR               
1 41752U 16054A   25144.53157736 -.00000068  00000+0  00000+0 0  9991
2 41752   0.1361  91.7550 0010426 180.7784 235.2184  1.00270938 31927
HIMAWARI-9              
1 41836U 16064A   25144.33070237 -.00000265  00000+0  00000+0 0  9992
2 41836   0.0085 237.6979 0001298 234.6628  29.6366  1.00272811 31313
GOES 16                 
1 41866U 16071A   25144.46692696 -.00000103  00000+0  00000+0 0  9997
2 41866   0.0550 261.6827 0001391 225.0902 185.7586  1.00124482 31201
FENGYUN 4A              
1 41882U 16077A   25144.60012698 -.00000348  00000+0  00000+0 0  9996
2 41882   1.3316  84.4518 0007378 164.8358 332.7972  1.00267121 31039
CYGFM05                 
1 41884U 16078A   25144.58059742  .00010639  00000+0  25753-3 0  9996
2 41884  34.9612 278.9098 0009334  96.1849 263.9934 15.40240584468514
